P/2007 K2 (Gibbs),e,7.6599,188.6449,347.4963,7.250251,0.0504864,0.68589215,166.5625,06/25.0/2016,2000,g 14.0,4.0
# From MPC 82314
C/2007 K3 (Siding Spring),e,16.3445,263.2328,23.3382,1403,0.0000188,0.99854814,0.0000,04/19.9209/2008,2000,g  9.5,4.0
# From MPC 87475
C/2007 M1 (McNaught),e,139.6778,326.9187,52.6062,1276,0.0000216,0.99414954,0.0000,08/08.1631/2008,2000,g  6.0,4.0
# From MPC 68392
C/2007 M2 (Catalina),e,81.1236,357.2220,220.6691,1310,0.0000208,0.99729741,0.0000,12/09.2952/2008,2000,g  8.0,4.0
# From MPC 73461
C/2007 N3 (Lulin),e,178.3765,338.2019,136.6035,1201,0.0000237,0.99897915,0.0000,01/07.1610/2009,2000,g  6.5,4.0
# From MPC 60925
P/2007 Q2 (Gilmore),e,10.2267,172.2638,163.1380,5.617999,0.0740170,0.66984958,240.1408,06/25.0/2016,2000,g 16.0,4.0
# From MPC 78183
C/2007 Q3 (Siding Spring),h,10/07.7870/2009,65.7225,149.2852,2.2285,1.000438,2.259296,2000,4.5,4.0
# From MPC 75514
P/2007 R1 (Larson),e,7.8723,181.6711,175.2449,6.048758,0.0662529,0.27738843,214.5592,06/25.0/2016,2000,g  8.0,4.0
# From MPC 75708
P/2007 R2 (Gibbs),e,1.3375,10.7459,353.3403,3.520595,0.1492038,0.56279930,133.1144,06/25.0/2016,2000,g 17.0,4.0
# From MPC 82314
P/2007 R3 (Gibbs),e,3.7934,30.0680,312.2037,4.300996,0.1104970,0.41387486,3.1610,06/25.0/2016,2000,g 13.5,4.0
# From MPC 75708
P/2007 R4 (Garradd),e,20.1961,87.3675,283.1046,5.876076,0.0691947,0.66904074,221.6983,06/25.0/2016,2000,g 14.5,4.0
# From MPC 73462
P/2007 S1 (Zhao),e,5.9734,141.5262,245.7532,3.798611,0.1331272,0.34323027,54.8544,06/25.0/2016,2000,g 13.0,4.0
# From MPC 82314
C/2007 S2 (Lemmon),e,16.8706,296.0613,210.5948,12.55691,0.0221503,0.55708753,62.9123,06/25.0/2016,2000,g  6.5,4.0
# From MPC 62270
C/2007 T1 (McNaught),e,117.5326,111.4238,233.7589,1786,0.0000131,0.99945441,0.0000,12/08.3723/2007,2000,g 10.5,4.0
# From MPC 61994
P/2007 T2 (Kowalski),e,9.9609,3.8672,358.6049,3.078386,0.1824817,0.77942173,221.3896,06/25.0/2016,2000,g 18.5,4.0
# From MPC 62879
P/2007 T4 (Gibbs),e,23.8622,37.0765,42.5257,5.241348,0.0821371,0.61821265,267.7101,06/25.0/2016,2000,g 13.0,4.0
# From MPC 65935
C/2007 T5 (Gibbs),e,45.6247,109.7703,34.5176,46.82702,0.0030758,0.91337233,9.0817,06/25.0/2016,2000,g  8.0,4.0
# From MPC 75708
P/2007 T6 (Catalina),e,22.1816,102.5188,335.8923,4.477214,0.1040381,0.50398857,335.5140,06/25.0/2016,2000,g 12.5,4.0
# From MPC 66921
C/2007 U1 (LINEAR),h,08/09.4470/2008,157.7516,50.4070,1.3794,1.001099,3.329417,2000,9.0,4.0
# From MPC 75708
P/2007 V1 (Larson),e,10.7602,7.9353,51.7313,4.972479,0.0888883,0.46227937,277.2177,06/25.0/2016,2000,g 12.0,4.0
# From MPC 75708
P/2007 VQ11 (Catalina),e,12.3262,163.8174,277.8746,5.411809,0.0782871,0.50315802,238.9481,06/25.0/2016,2000,g 12.0,4.0
# From MPC 81468
C/2007 VO53 (Spacewatch),h,04/26.2579/2010,86.9204,59.7097,75.1486,1.001412,4.850801,2000,7.0,4.0
# From MPC 63599
C/2007 W1 (Boattini),e,9.8823,334.8467,306.0743,1108,0.0000267,0.99923994,0.0000,06/22.9999/2008,2000,g  9.5,4.0
# From MPC 63376
C/2007 W3 (LINEAR),e,78.6505,72.8872,112.4355,3388,0.0000050,0.99948045,0.0000,06/04.5691/2008,2000,g 12.0,4.0
# From MPC 62271
C/2007 Y1 (LINEAR),e,110.2044,132.9846,357.2282,7646,0.0000015,0.99956046,0.0000,03/18.4255/2008,2000,g 10.5,4.0
# From MPC 62271
C/2007 Y2 (McNaught),e,98.5519,303.4532,257.7459,1016,0.0000304,0.99586293,0.0000,04/11.4877/2008,2000,g  9.0,4.0
# From MPC 65935
C/2008 A1 (McNaught),e,82.6194,277.8819,348.2614,2694,0.0000070,0.99960535,0.0000,09/27.7562/2008,2000,g  6.5,4.0
# From MPC 62582
C/2008 C1 (Chen-Gao),e,61.9063,307.6597,181.0409,7459,0.0000015,0.99983006,0.0000,04/18.0892/2008,2000,g 10.0,4.0
# From MPC 75708
P/2008 CL94 (Lemmon),e,8.3542,33.3550,81.3839,6.149512,0.0646313,0.12103584,235.7032,06/25.0/2016,2000,g  8.0,4.0
# From MPC 64113
C/2008 E1 (Catalina),e,34.8208,188.8152,270.7402,10.81552,0.0277098,0.55047444,79.5959,06/25.0/2016,2000,g  7.0,4.0
# From MPC 68392
C/2008 E3 (Garradd),e,105.1057,105.7194,217.9775,1160,0.0000249,0.99523817,0.0000,07/29.2553/2008,2000,g  6.0,4.0
# From MPC 88324
C/2008 FK75 (Lemmon-Siding Spring),h,09/29.0313/2010,61.2819,218.2765,80.3903,1.000159,4.507188,2000,5.0,4.0
# From MPC 82314
C/2008 G1 (Gibbs),e,73.0507,215.9208,63.6739,275.0259,0.0002161,0.98549555,0.0000,01/10.7756/2009,2000,g  9.5,4.0
# From MPC 63137
C/2008 H1 (LINEAR),e,75.3820,34.4416,96.0076,50.79372,0.0027226,0.94574320,8.2291,06/25.0/2016,2000,g 10.5,4.0
# From MPC 65054
C/2008 J1 (Boattini),e,61.7968,273.4931,68.1650,157.4874,0.0004987,0.98898957,0.0000,07/09.2107/2008,2000,g 10.0,4.0
# From MPC 75709
P/2008 J3 (McNaught),e,25.3507,9.8101,4.5711,3.905386,0.1277051,0.41057752,340.7237,06/25.0/2016,2000,g 12.0,4.0
# From MPC 63376
C/2008 J5 (Garradd),e,93.3000,287.1026,313.0488,68.19460,0.0017502,0.97152274,0.0000,04/01.9796/2008,2000,g 12.0,4.0
# From MPC 82314
C/2008 J6 (Hill),h,04/08.1593/2008,44.9607,298.2512,10.5506,1.000816,1.998646,2000,10.5,4.0
# From MPC 75709
P/2008 L2 (Hill),e,25.8293,218.0192,141.4029,6.020540,0.0667192,0.61184969,191.9135,06/25.0/2016,2000,g 12.5,4.0
# From MPC 68902
C/2008 N1 (Holmes),e,115.3881,357.3426,100.7062,863.4450,0.0000388,0.99677238,0.0000,09/23.3060/2009,2000,g  9.0,4.0
# From MPC 75709
P/2008 O2 (McNaught),e,9.5133,325.8459,27.0710,4.493620,0.1034688,0.15100052,272.2606,06/25.0/2016,2000,g  9.0,4.0
# From MPC 64114
P/2008 O3 (Boattini),e,32.2004,47.6236,341.2387,8.238016,0.0416841,0.69351088,122.9754,06/25.0/2016,2000,g 13.0,4.0
# From MPC 82314
C/2008 P1 (Garradd),e,64.2444,357.8128,11.8111,6707,0.0000018,0.99941877,0.0000,07/20.7589/2009,2000,g  7.0,4.0
# From MPC 65935
C/2008 Q1 (Maticic),e,118.5077,9.1286,104.2816,552.4927,0.0000759,0.99464845,0.0000,12/27.7481/2008,2000,g 10.0,4.0
# From MPC 80896
C/2008 Q3 (Garradd),e,140.7992,219.5213,340.5959,1239,0.0000226,0.99854629,0.0000,06/20.1464/2009,2000,g 10.0,4.0
# From MPC 75709
P/2008 QP20 (LINEAR-Hill),e,7.7365,324.9644,72.4692,3.495911,0.1507869,0.50660244,60.9933,06/25.0/2016,2000,g 15.5,4.0
# From MPC 64115
C/2008 R3 (LINEAR),e,43.2353,270.6394,84.2201,18.29884,0.0125912,0.89495239,34.9543,06/25.0/2016,2000,g 13.0,4.0
# From MPC 95207
C/2008 S3 (Boattini),h,06/09.8629/2011,162.6996,55.0422,40.1407,1.003540,8.012249,2000,4.0,4.0
# From MPC 82717
P/2008 T1 (Boattini),e,2.0787,291.7422,35.8032,4.249673,0.1125047,0.27923870,343.5455,06/25.0/2016,2000,g 11.0,4.0
# From MPC 66921
C/2008 T2 (Cardinal),h,06/15.3507/2009,56.3852,309.6572,215.8513,1.000120,1.198956,2000,6.0,4.0
# From MPC 75710
P/2008 T4 (Hill),e,6.3091,44.6172,1.6192,4.463168,0.1045296,0.43425638,286.4327,06/25.0/2016,2000,g 13.5,4.0
# From MPC 66204
P/2008 WZ96 (LINEAR),e,6.9596,58.9302,338.1041,3.365933,0.1596048,0.51011239,72.8927,06/25.0/2016,2000,g 13.5,4.0
# From MPC 65057
C/2008 X3 (LINEAR),e,66.5017,337.5080,140.9573,43.61253,0.0034221,0.95616061,9.6336,06/25.0/2016,2000,g 13.0,4.0
# From MPC 65935
P/2008 Y1 (Boattini),e,8.9202,259.3368,162.8148,4.801865,0.0936676,0.73600203,250.1653,06/25.0/2016,2000,g 15.0,4.0
# From MPC 75710
P/2008 Y3 (McNaught),e,38.8046,262.8383,238.3598,8.033006,0.0432899,0.44816350,117.7202,06/25.0/2016,2000,g  8.5,4.0
# From MPC 88693
P/2008 Y12 (SOHO),e,23.5763,309.8527,144.3221,3.076669,0.1826346,0.97806777,0.0000,05/17.8632/2014,2000,g  9.0,4.0
# From MPC 75710
P/2009 B1 (Boattini),e,22.2296,297.0589,129.1868,6.725067,0.0565144,0.63561367,152.6060,06/25.0/2016,2000,g 13.0,4.0
# From MPC 82315
C/2009 B2 (LINEAR),e,156.9501,18.7150,192.4694,40.47178,0.0038280,0.94205145,10.2215,06/25.0/2016,2000,g 12.5,4.0
# From MPC 72850
C/2009 E1 (Itagaki),e,127.4461,105.9321,48.8658,40.36206,0.0038437,0.98528504,0.0000,04/10.0231/2009,2000,g 11.5,4.0
# From MPC 82315
C/2009 F1 (Larson),e,171.4050,357.9617,219.8544,95.85975,0.0010501,0.98068637,0.0000,06/24.5150/2009,2000,g 15.0,4.0
# From MPC 80256
C/2009 F2 (McNaught),e,59.3370,213.9256,336.3510,349.5371,0.0001508,0.98319481,0.0000,11/13.9168/2009,2000,g  6.0,4.0
# From MPC 95208
C/2009 F4 (McNaught),e,79.4210,53.5586,260.3848,6186,0.0000020,0.99911827,0.0000,12/31.6141/2011,2000,g  3.0,4.0
# From MPC 66204
C/2009 F5 (McNaught),e,84.9470,218.8181,297.2409,78.51230,0.0014168,0.97149727,0.0000,11/04.8287/2008,2000,g 10.0,4.0
# From MPC 72850
C/2009 F6 (Yi-SWAN),e,85.7119,278.7428,129.9937,508.6592,0.0000859,0.99746323,0.0000,05/05.5472/2009,2000,g  6.0,4.0
# From MPC 66466
C/2009 G1 (STEREO),e,108.2658,120.7249,175.3001,398.2397,0.0001240,0.99718625,0.0000,04/14.8488/2009,2000,g  9.0,4.0
# From MPC 67147
P/2009 K1 (Gibbs),e,5.7439,172.7709,27.4335,3.692083,0.1389303,0.63713100,355.9170,06/25.0/2016,2000,g 17.0,4.0
# From MPC 82315
C/2009 K2 (Catalina),e,66.8276,123.8013,147.4701,828.8727,0.0000413,0.99610620,0.0000,02/07.7340/2010,2000,g 10.0,4.0
# From MPC 66703
C/2009 K4 (Gibbs),e,34.8370,29.8037,127.6491,42.18823,0.0035968,0.96337247,9.2115,06/25.0/2016,2000,g 13.0,4.0
# From MPC 82315
C/2009 K5 (McNaught),e,104.1059,257.9821,66.1946,1727,0.0000137,0.99917289,0.0000,04/27.7087/2010,2000,g  7.5,4.0
# From MPC 69905
C/2009 O2 (Catalina),e,107.9536,310.1520,133.5652,255.3161,0.0002416,0.99723514,0.0000,03/23.4597/2010,2000,g 11.0,4.0
# From MPC 75710
P/2009 O3 (Hill),e,16.2085,183.8269,154.3644,7.788194,0.0453470,0.68466978,117.9533,06/25.0/2016,2000,g 12.5,4.0
# From MPC 67147
C/2009 O4 (Hill),h,12/30.2730/2009,95.6424,172.9939,223.7269,1.000387,2.564831,2000,10.0,4.0
# From MPC 89309
C/2009 P1 (Garradd),e,106.1811,326.0140,90.7739,9019,0.0000012,0.99982742,0.0000,12/22.0447/2011,2000,g  4.0,4.0
# From MPC 76024
C/2009 P2 (Boattini),h,02/12.0491/2010,163.4296,60.4912,76.2326,1.001838,6.534500,2000,6.0,4.0
# From MPC 75710
P/2009 Q1 (Hill),e,14.5005,173.9441,157.3343,5.513459,0.0761321,0.49382133,195.2329,06/25.0/2016,2000,g 11.5,4.0
# From MPC 72850
P/2009 Q4 (Boattini),e,10.9794,127.5792,320.1000,3.135102,0.1775524,0.58022854,67.0509,06/25.0/2016,2000,g 15.5,4.0
# From MPC 68902
P/2009 Q5 (McNaught),e,40.8557,160.1781,209.2336,7.452750,0.0484428,0.60685448,120.5282,06/25.0/2016,2000,g 10.0,4.0
# From MPC 82315
